SL-8 R/B                
1 21088U 91006B   26075.68849411  .00000073  00000+0  58365-4 0  9996
2 21088  82.9461 164.8430 0022662  19.2699 133.0975 13.77495210765039
OKEAN-3                 
1 21397U 91039A   26075.66091151  .00002669  00000+0  18661-3 0  9990
2 21397  82.5201 330.0910 0013257 311.3298  48.6787 15.04858315866081
COSMOS 2151             
1 21422U 91042A   26075.82057220  .00002069  00000+0  16347-3 0  9993
2 21422  82.4930  76.7951 0013552  41.8672 318.3586 15.00134855864260
SL-14 R/B               
1 21423U 91042B   26075.84793384  .00000457  00000+0  54837-4 0  9990
2 21423  82.4936 213.4700 0016222 213.5264 146.4925 14.81837281854134
ERS-1                   
1 21574U 91050A   26075.78744438  .00000280  00000+0  10407-3 0  9993
2 21574  98.7875  94.2004 0032016 179.2975 180.8262 14.39454864816758
ARIANE 40 R/B           
1 21610U 91050F   26075.12805571  .00000308  00000+0  10452-3 0  9999
2 21610  98.1998 127.1226 0004167  67.2103 292.9528 14.42898614819927
INTERCOSMOS 25          
1 21819U 91086A   26075.59203302  .00001840  00000+0  35344-3 0  9993
2 21819  82.6041 305.8364 1486836 102.0646 275.0452 12.12025324497522
SL-8 R/B                
1 21876U 92008B   26075.05904974  .00000011  00000+0 -46370-5 0  9998
2 21876  82.9222 263.0387 0035772 116.0826 358.8165 13.75969755710290
SL-8 R/B                
1 21938U 92020B   26075.69671773  .00000054  00000+0  40866-4 0  9998
2 21938  82.9325 148.5596 0027551 278.3233 249.3584 13.75550070702096
USA 81                  
1 21949U 92023A   26075.85414468  .00000175  00000+0  57524-4 0  9990
2 21949  85.0070 127.3076 0002274  72.1213 288.0228 14.32370344 95818
COSMOS 2219             
1 22219U 92076A   26075.87775133 -.00000070  00000+0 -12250-4 0  9993
2 22219  71.0641   3.0429 0018562 197.0359 163.0143 14.14093727719396
SL-16 R/B               
1 22220U 92076B   26075.70335784  .00000105  00000+0  76033-4 0  9997
2 22220  71.0006 173.6007 0010564  83.4065  66.4973 14.16859419722824
COSMOS 2221             
1 22236U 92080A   26075.79322035  .00001575  00000+0  13706-3 0  9992
2 22236  82.5001 272.2751 0014671 163.4074 196.7631 14.96229662781852
SL-16 R/B               
1 22285U 92093B   26075.87719043  .00000074  00000+0  62263-4 0  9994
2 22285  71.0240 349.1789 0006277 286.3696  73.6737 14.15447324714176
COSMOS 2228             
1 22286U 92094A   26075.87168458  .00001940  00000+0  16498-3 0  9995
2 22286  82.5162 230.4331 0016578 278.4287  81.5056 14.97228341777138
SL-16 R/B               
1 22566U 93016B   26075.63559897 -.00000209  00000+0 -82692-4 0  9995
2 22566  71.0083 200.5932 0012225 305.0619  54.9356 14.15308685703158
COSMOS 2242             
1 22626U 93024A   26074.92090002  .00002154  00000+0  18666-3 0  9998
2 22626  82.5150 260.7546 0014920 286.0908  73.8671 14.96575952781326
