[{"OBJECT_NAME":"SL-8 R/B","OBJECT_ID":"1991-006B","EPOCH":"2026-03-16T16:31:25.891104","MEAN_MOTION":13.7749521,"ECCENTRICITY":0.0022662,"INCLINATION":82.9461,"RA_OF_ASC_NODE":164.843,"ARG_OF_PERICENTER":19.2699,"MEAN_ANOMALY":133.0975,"EPHEMERIS_TYPE":0,"CLASSIFICATION_TYPE":"U","NORAD_CAT_ID":21088,"ELEMENT_SET_NO":999,"REV_AT_EPOCH":76503,"BSTAR":5.8365e-5,"MEAN_MOTION_DOT":7.3e-7,"MEAN_MOTION_DDOT":0},{"OBJECT_NAME":"OKEAN-3","OBJECT_ID":"1991-039A","EPOCH":"2026-03-16T15:51:42.754464","MEAN_MOTION":15.04858315,"ECCENTRICITY":0.0013257,"INCLINATION":82.5201,"RA_OF_ASC_NODE":330.091,"ARG_OF_PERICENTER":311.3298,"MEAN_ANOMALY":48.6787,"EPHEMERIS_TYPE":0,"CLASSIFICATION_TYPE":"U","NORAD_CAT_ID":21397,"ELEMENT_SET_NO":999,"REV_AT_EPOCH":86608,"BSTAR":0.00018661,"MEAN_MOTION_DOT":2.669e-5,"MEAN_MOTION_DDOT":0},{"OBJECT_NAME":"COSMOS 2151","OBJECT_ID":"1991-042A","EPOCH":"2026-03-16T19:41:37.438080","MEAN_MOTION":15.00134855,"ECCENTRICITY":0.0013552,"INCLINATION":82.493,"RA_OF_ASC_NODE":76.7951,"ARG_OF_PERICENTER":41.8672,"MEAN_ANOMALY":318.3586,"EPHEMERIS_TYPE":0,"CLASSIFICATION_TYPE":"U","NORAD_CAT_ID":21422,"ELEMENT_SET_NO":999,"REV_AT_EPOCH":86426,"BSTAR":0.00016347,"MEAN_MOTION_DOT":2.069e-5,"MEAN_MOTION_DDOT":0},{"OBJECT_NAME":"SL-14 R/B","OBJECT_ID":"1991-042B","EPOCH":"2026-03-16T20:21:01.483776","MEAN_MOTION":14.81837281,"ECCENTRICITY":0.0016222,"INCLINATION":82.4936,"RA_OF_ASC_NODE":213.47,"ARG_OF_PERICENTER":213.5264,"MEAN_ANOMALY":146.4925,"EPHEMERIS_TYPE":0,"CLASSIFICATION_TYPE":"U","NORAD_CAT_ID":21423,"ELEMENT_SET_NO":999,"REV_AT_EPOCH":85413,"BSTAR":5.4837e-5,"MEAN_MOTION_DOT":4.57e-6,"MEAN_MOTION_DDOT":0},{"OBJECT_NAME":"ERS-1","OBJECT_ID":"1991-050A","EPOCH":"2026-03-16T18:53:55.194432","MEAN_MOTION":14.39454864,"ECCENTRICITY":0.0032016,"INCLINATION":98.7875,"RA_OF_ASC_NODE":94.2004,"ARG_OF_PERICENTER":179.2975,"MEAN_ANOMALY":180.8262,"EPHEMERIS_TYPE":0,"CLASSIFICATION_TYPE":"U","NORAD_CAT_ID":21574,"ELEMENT_SET_NO":999,"REV_AT_EPOCH":81675,"BSTAR":0.00010407,"MEAN_MOTION_DOT":2.8e-6,"MEAN_MOTION_DDOT":0},{"OBJECT_NAME":"ARIANE 40 R/B","OBJECT_ID":"1991-050F","EPOCH":"2026-03-16T03:04:24.013344","MEAN_MOTION":14.42898614,"ECCENTRICITY":0.00041679,"INCLINATION":98.1998,"RA_OF_ASC_NODE":127.1226,"ARG_OF_PERICENTER":67.2103,"MEAN_ANOMALY":292.9528,"EPHEMERIS_TYPE":0,"CLASSIFICATION_TYPE":"U","NORAD_CAT_ID":21610,"ELEMENT_SET_NO":999,"REV_AT_EPOCH":81992,"BSTAR":0.00010452422,"MEAN_MOTION_DOT":3.08e-6,"MEAN_MOTION_DDOT":0},{"OBJECT_NAME":"INTERCOSMOS 25","OBJECT_ID":"1991-086A","EPOCH":"2026-03-16T14:12:31.652928","MEAN_MOTION":12.12025324,"ECCENTRICITY":0.1486836,"INCLINATION":82.6041,"RA_OF_ASC_NODE":305.8364,"ARG_OF_PERICENTER":102.0646,"MEAN_ANOMALY":275.0452,"EPHEMERIS_TYPE":0,"CLASSIFICATION_TYPE":"U","NORAD_CAT_ID":21819,"ELEMENT_SET_NO":999,"REV_AT_EPOCH":49752,"BSTAR":0.00035344,"MEAN_MOTION_DOT":1.84e-5,"MEAN_MOTION_DDOT":0},{"OBJECT_NAME":"SL-8 R/B","OBJECT_ID":"1992-008B","EPOCH":"2026-03-16T01:25:01.897536","MEAN_MOTION":13.75969755,"ECCENTRICITY":0.00357729,"INCLINATION":82.9222,"RA_OF_ASC_NODE":263.0387,"ARG_OF_PERICENTER":116.0826,"MEAN_ANOMALY":358.8165,"EPHEMERIS_TYPE":0,"CLASSIFICATION_TYPE":"U","NORAD_CAT_ID":21876,"ELEMENT_SET_NO":999,"REV_AT_EPOCH":71029,"BSTAR":-4.637036e-6,"MEAN_MOTION_DOT":1.1e-7,"MEAN_MOTION_DDOT":0},{"OBJECT_NAME":"SL-8 R/B","OBJECT_ID":"1992-020B","EPOCH":"2026-03-16T16:43:16.411872","MEAN_MOTION":13.7555007,"ECCENTRICITY":0.0027551,"INCLINATION":82.9325,"RA_OF_ASC_NODE":148.5596,"ARG_OF_PERICENTER":278.3233,"MEAN_ANOMALY":249.3584,"EPHEMERIS_TYPE":0,"CLASSIFICATION_TYPE":"U","NORAD_CAT_ID":21938,"ELEMENT_SET_NO":999,"REV_AT_EPOCH":70209,"BSTAR":4.0866e-5,"MEAN_MOTION_DOT":5.4e-7,"MEAN_MOTION_DDOT":0},{"OBJECT_NAME":"USA 81","OBJECT_ID":"1992-023A","EPOCH":"2026-03-16T20:29:58.100352","MEAN_MOTION":14.32370344,"ECCENTRICITY":0.0002274,"INCLINATION":85.007,"RA_OF_ASC_NODE":127.3076,"ARG_OF_PERICENTER":72.1213,"MEAN_ANOMALY":288.0228,"EPHEMERIS_TYPE":0,"CLASSIFICATION_TYPE":"U","NORAD_CAT_ID":21949,"ELEMENT_SET_NO":999,"REV_AT_EPOCH":9581,"BSTAR":5.7524e-5,"MEAN_MOTION_DOT":1.75e-6,"MEAN_MOTION_DDOT":0},{"OBJECT_NAME":"COSMOS 2219","OBJECT_ID":"1992-076A","EPOCH":"2026-03-16T21:03:57.714912","MEAN_MOTION":14.14093727,"ECCENTRICITY":0.0018562,"INCLINATION":71.0641,"RA_OF_ASC_NODE":3.0429,"ARG_OF_PERICENTER":197.0359,"MEAN_ANOMALY":163.0143,"EPHEMERIS_TYPE":0,"CLASSIFICATION_TYPE":"U","NORAD_CAT_ID":22219,"ELEMENT_SET_NO":999,"REV_AT_EPOCH":71939,"BSTAR":-1.225e-5,"MEAN_MOTION_DOT":-7.0e-7,"MEAN_MOTION_DDOT":0},{"OBJECT_NAME":"SL-16 R/B","OBJECT_ID":"1992-076B","EPOCH":"2026-03-16T16:52:50.117376","MEAN_MOTION":14.16859419,"ECCENTRICITY":0.0010564,"INCLINATION":71.0006,"RA_OF_ASC_NODE":173.6007,"ARG_OF_PERICENTER":83.4065,"MEAN_ANOMALY":66.4973,"EPHEMERIS_TYPE":0,"CLASSIFICATION_TYPE":"U","NORAD_CAT_ID":22220,"ELEMENT_SET_NO":999,"REV_AT_EPOCH":72282,"BSTAR":7.6033e-5,"MEAN_MOTION_DOT":1.05e-6,"MEAN_MOTION_DDOT":0},{"OBJECT_NAME":"COSMOS 2221","OBJECT_ID":"1992-080A","EPOCH":"2026-03-16T19:02:14.238240","MEAN_MOTION":14.96229662,"ECCENTRICITY":0.0014671,"INCLINATION":82.5001,"RA_OF_ASC_NODE":272.2751,"ARG_OF_PERICENTER":163.4074,"MEAN_ANOMALY":196.7631,"EPHEMERIS_TYPE":0,"CLASSIFICATION_TYPE":"U","NORAD_CAT_ID":22236,"ELEMENT_SET_NO":999,"REV_AT_EPOCH":78185,"BSTAR":0.00013706,"MEAN_MOTION_DOT":1.575e-5,"MEAN_MOTION_DDOT":0},{"OBJECT_NAME":"SL-16 R/B","OBJECT_ID":"1992-093B","EPOCH":"2026-03-16T21:03:09.253152","MEAN_MOTION":14.15447324,"ECCENTRICITY":0.0006277,"INCLINATION":71.024,"RA_OF_ASC_NODE":349.1789,"ARG_OF_PERICENTER":286.3696,"MEAN_ANOMALY":73.6737,"EPHEMERIS_TYPE":0,"CLASSIFICATION_TYPE":"U","NORAD_CAT_ID":22285,"ELEMENT_SET_NO":999,"REV_AT_EPOCH":71417,"BSTAR":6.2263e-5,"MEAN_MOTION_DOT":7.4e-7,"MEAN_MOTION_DDOT":0},{"OBJECT_NAME":"COSMOS 2228","OBJECT_ID":"1992-094A","EPOCH":"2026-03-16T20:55:13.547712","MEAN_MOTION":14.97228341,"ECCENTRICITY":0.0016578,"INCLINATION":82.5162,"RA_OF_ASC_NODE":230.4331,"ARG_OF_PERICENTER":278.4287,"MEAN_ANOMALY":81.5056,"EPHEMERIS_TYPE":0,"CLASSIFICATION_TYPE":"U","NORAD_CAT_ID":22286,"ELEMENT_SET_NO":999,"REV_AT_EPOCH":77713,"BSTAR":0.00016498,"MEAN_MOTION_DOT":1.94e-5,"MEAN_MOTION_DDOT":0},{"OBJECT_NAME":"SL-16 R/B","OBJECT_ID":"1993-016B","EPOCH":"2026-03-16T15:15:15.751008","MEAN_MOTION":14.15308685,"ECCENTRICITY":0.0012225,"INCLINATION":71.0083,"RA_OF_ASC_NODE":200.5932,"ARG_OF_PERICENTER":305.0619,"MEAN_ANOMALY":54.9356,"EPHEMERIS_TYPE":0,"CLASSIFICATION_TYPE":"U","NORAD_CAT_ID":22566,"ELEMENT_SET_NO":999,"REV_AT_EPOCH":70315,"BSTAR":-8.2692e-5,"MEAN_MOTION_DOT":-2.09e-6,"MEAN_MOTION_DDOT":0},{"OBJECT_NAME":"COSMOS 2242","OBJECT_ID":"1993-024A","EPOCH":"2026-03-15T22:06:05.761728","MEAN_MOTION":14.96575952,"ECCENTRICITY":0.00149206,"INCLINATION":82.515,"RA_OF_ASC_NODE":260.7546,"ARG_OF_PERICENTER":286.0908,"MEAN_ANOMALY":73.8671,"EPHEMERIS_TYPE":0,"CLASSIFICATION_TYPE":"U","NORAD_CAT_ID":22626,"ELEMENT_SET_NO":999,"REV_AT_EPOCH":78132,"BSTAR":0.00018665648,"MEAN_MOTION_DOT":2.154e-5,"MEAN_MOTION_DDOT":0}]
